{
  "type": "FeatureCollection",
  "features": [
    {
      "type": "Feature",
      "properties": {
        "norad_id": 33412,
        "name": "COSMO-SKYMED 3",
        "group": "resource",
        "lat": 67.93486417441234,
        "lon": 35.549651562705655,
        "alt_km": 539.7721013834889,
        "timestamp": "2025-12-11T07:02:23.390383+00:00",
        "meta_object_name": "COSMO-SKYMED 3",
        "meta_object_id": "2008-054A",
        "meta_epoch": "2025-12-10T22:34:21.609696",
        "meta_mean_motion": 15.05330266,
        "meta_eccentricity": 0.00158586,
        "meta_inclination": 97.8463,
        "meta_ra_of_asc_node": 195.3018,
        "meta_arg_of_pericenter": 180.0347,
        "meta_mean_anomaly": 180.0881,
        "meta_ephemeris_type": 0,
        "meta_classification_type": "U",
        "meta_norad_cat_id": 33412,
        "meta_element_set_no": 999,
        "meta_rev_at_epoch": 92860,
        "meta_bstar": 0.00072888067,
        "meta_mean_motion_dot": 0.00010407,
        "meta_mean_motion_ddot": 0,
        "tle_line1": "1 33412U 08054A   25344.94052789  .00010407  00000+0  72888-3 0  9999",
        "tle_line2": "2 33412  97.8463 195.3018 0015858 180.0347 180.0881 15.05330266928601"
      },
      "geometry": {
        "type": "Point",
        "coordinates": [
          35.549651562705655,
          67.93486417441234
        ]
      }
    },
    {
      "type": "Feature",
      "properties": {
        "norad_id": 33446,
        "name": "YAOGAN-4",
        "group": "resource",
        "lat": -29.620472572173313,
        "lon": 90.86831959973965,
        "alt_km": 631.4473067869803,
        "timestamp": "2025-12-11T07:02:23.390394+00:00",
        "meta_object_name": "YAOGAN-4",
        "meta_object_id": "2008-061A",
        "meta_epoch": "2025-12-10T18:45:27.285984",
        "meta_mean_motion": 14.82672885,
        "meta_eccentricity": 0.00137394,
        "meta_inclination": 97.9179,
        "meta_ra_of_asc_node": 274.9001,
        "meta_arg_of_pericenter": 330.1294,
        "meta_mean_anomaly": 29.9134,
        "meta_ephemeris_type": 0,
        "meta_classification_type": "U",
        "meta_norad_cat_id": 33446,
        "meta_element_set_no": 999,
        "meta_rev_at_epoch": 91774,
        "meta_bstar": 0.00030466827,
        "meta_mean_motion_dot": 2.407e-05,
        "meta_mean_motion_ddot": 0,
        "tle_line1": "1 33446U 08061A   25344.78156581  .00002407  00000+0  30467-3 0  9999",
        "tle_line2": "2 33446  97.9179 274.9001 0013739 330.1294  29.9134 14.82672885917749"
      },
      "geometry": {
        "type": "Point",
        "coordinates": [
          90.86831959973965,
          -29.620472572173313
        ]
      }
    },
    {
      "type": "Feature",
      "properties": {
        "norad_id": 33492,
        "name": "GOSAT (IBUKI)",
        "group": "resource",
        "lat": -19.282749573343896,
        "lon": 96.76430919500534,
        "alt_km": 674.228690236293,
        "timestamp": "2025-12-11T07:02:23.390404+00:00",
        "meta_object_name": "GOSAT (IBUKI)",
        "meta_object_id": "2009-002A",
        "meta_epoch": "2025-12-10T18:02:15.123552",
        "meta_mean_motion": 14.67549167,
        "meta_eccentricity": 9.469e-05,
        "meta_inclination": 98.0769,
        "meta_ra_of_asc_node": 93.3825,
        "meta_arg_of_pericenter": 89.8931,
        "meta_mean_anomaly": 270.2382,
        "meta_ephemeris_type": 0,
        "meta_classification_type": "U",
        "meta_norad_cat_id": 33492,
        "meta_element_set_no": 999,
        "meta_rev_at_epoch": 90382,
        "meta_bstar": 0.00026898535,
        "meta_mean_motion_dot": 1.478e-05,
        "meta_mean_motion_ddot": 0,
        "tle_line1": "1 33492U 09002A   25344.75156393  .00001478  00000+0  26899-3 0  9995",
        "tle_line2": "2 33492  98.0769  93.3825 0000946  89.8931 270.2382 14.67549167903825"
      },
      "geometry": {
        "type": "Point",
        "coordinates": [
          96.76430919500534,
          -19.282749573343896
        ]
      }
    },
    {
      "type": "Feature",
      "properties": {
        "norad_id": 35681,
        "name": "DEIMOS-1",
        "group": "resource",
        "lat": 19.666067721530485,
        "lon": 143.1866606629237,
        "alt_km": 644.5304823911692,
        "timestamp": "2025-12-11T07:02:23.390434+00:00",
        "meta_object_name": "DEIMOS-1",
        "meta_object_id": "2009-041A",
        "meta_epoch": "2025-12-10T21:10:51.958848",
        "meta_mean_motion": 14.74947467,
        "meta_eccentricity": 0.00027455,
        "meta_inclination": 97.715,
        "meta_ra_of_asc_node": 145.5721,
        "meta_arg_of_pericenter": 82.3795,
        "meta_mean_anomaly": 277.7726,
        "meta_ephemeris_type": 0,
        "meta_classification_type": "U",
        "meta_norad_cat_id": 35681,
        "meta_element_set_no": 999,
        "meta_rev_at_epoch": 87912,
        "meta_bstar": 0.00015678571,
        "meta_mean_motion_dot": 1.006e-05,
        "meta_mean_motion_ddot": 0,
        "tle_line1": "1 35681U 09041A   25344.88254582  .00001006  00000+0  15679-3 0  9994",
        "tle_line2": "2 35681  97.7150 145.5721 0002745  82.3795 277.7726 14.74947467879129"
      },
      "geometry": {
        "type": "Point",
        "coordinates": [
          143.1866606629237,
          19.666067721530485
        ]
      }
    },
    {
      "type": "Feature",
      "properties": {
        "norad_id": 35682,
        "name": "DUBAISAT-1",
        "group": "resource",
        "lat": -42.92876534015222,
        "lon": 123.49082705338944,
        "alt_km": 646.2867680303043,
        "timestamp": "2025-12-11T07:02:23.390447+00:00",
        "meta_object_name": "DUBAISAT-1",
        "meta_object_id": "2009-041B",
        "meta_epoch": "2025-12-10T19:50:10.828608",
        "meta_mean_motion": 14.74595867,
        "meta_eccentricity": 0.00096895,
        "meta_inclination": 97.9788,
        "meta_ra_of_asc_node": 115.5345,
        "meta_arg_of_pericenter": 321.2115,
        "meta_mean_anomaly": 38.8398,
        "meta_ephemeris_type": 0,
        "meta_classification_type": "U",
        "meta_norad_cat_id": 35682,
        "meta_element_set_no": 999,
        "meta_rev_at_epoch": 87733,
        "meta_bstar": 0.00035174594,
        "meta_mean_motion_dot": 2.295e-05,
        "meta_mean_motion_ddot": 0,
        "tle_line1": "1 35682U 09041B   25344.82651422  .00002295  00000+0  35175-3 0  9997",
        "tle_line2": "2 35682  97.9788 115.5345 0009689 321.2115  38.8398 14.74595867877338"
      },
      "geometry": {
        "type": "Point",
        "coordinates": [
          123.49082705338944,
          -42.92876534015222
        ]
      }
    },
    {
      "type": "Feature",
      "properties": {
        "norad_id": 35931,
        "name": "OCEANSAT-2",
        "group": "resource",
        "lat": 15.504978879110032,
        "lon": 168.3395567367221,
        "alt_km": 900.8493191438047,
        "timestamp": "2025-12-11T07:02:23.390458+00:00",
        "meta_object_name": "OCEANSAT-2",
        "meta_object_id": "2009-051A",
        "meta_epoch": "2025-12-10T23:23:47.002848",
        "meta_mean_motion": 13.99625042,
        "meta_eccentricity": 0.00162736,
        "meta_inclination": 98.2224,
        "meta_ra_of_asc_node": 345.7545,
        "meta_arg_of_pericenter": 49.6792,
        "meta_mean_anomaly": 310.5794,
        "meta_ephemeris_type": 0,
        "meta_classification_type": "U",
        "meta_norad_cat_id": 35931,
        "meta_element_set_no": 999,
        "meta_rev_at_epoch": 85300,
        "meta_bstar": -7.5813988e-05,
        "meta_mean_motion_dot": -1.48e-06,
        "meta_mean_motion_ddot": 0,
        "tle_line1": "1 35931U 09051A   25344.97484957 -.00000148  00000+0 -75814-4 0  9990",
        "tle_line2": "2 35931  98.2224 345.7545 0016273  49.6792 310.5794 13.99625042853005"
      },
      "geometry": {
        "type": "Point",
        "coordinates": [
          168.3395567367221,
          15.504978879110032
        ]
      }
    },
    {
      "type": "Feature",
      "properties": {
        "norad_id": 35946,
        "name": "WORLDVIEW-2 (WV-2)",
        "group": "resource",
        "lat": 81.11050050593836,
        "lon": -16.04651045175256,
        "alt_km": 755.1804794505279,
        "timestamp": "2025-12-11T07:02:23.390472+00:00",
        "meta_object_name": "WORLDVIEW-2 (WV-2)",
        "meta_object_id": "2009-055A",
        "meta_epoch": "2025-12-10T22:17:01.519584",
        "meta_mean_motion": 14.3765145,
        "meta_eccentricity": 0.00053276,
        "meta_inclination": 98.4762,
        "meta_ra_of_asc_node": 56.0377,
        "meta_arg_of_pericenter": 71.2855,
        "meta_mean_anomaly": 288.891,
        "meta_ephemeris_type": 0,
        "meta_classification_type": "U",
        "meta_norad_cat_id": 35946,
        "meta_element_set_no": 999,
        "meta_rev_at_epoch": 84859,
        "meta_bstar": 0.00010637734,
        "meta_mean_motion_dot": 2.76e-06,
        "meta_mean_motion_ddot": 0,
        "tle_line1": "1 35946U 09055A   25344.92848981  .00000276  00000+0  10638-3 0  9998",
        "tle_line2": "2 35946  98.4762  56.0377 0005327  71.2855 288.8910 14.37651450848594"
      },
      "geometry": {
        "type": "Point",
        "coordinates": [
          -16.04651045175256,
          81.11050050593836
        ]
      }
    }
  ]
}